{"type": "FeatureCollection", "features": [ {"type": "Feature", "properties": {"norad_id": 43058, "name": "GSAT0218 (GALILEO 22)", "group": "galileo", "lat": 45.1420118291196, "lon": -88.77036270921992, "alt_km": 23220.499290478, "timestamp": "2025-12-06T20:37:56.334798+00:00", "meta": {"OBJECT_NAME": "GSAT0218 (GALILEO 22)", "OBJECT_ID": "2017-079D", "EPOCH": "2025-12-03T05:49:40.297728", "MEAN_MOTION": 1.70473824, "ECCENTRICITY": 0.00029171, "INCLINATION": 55.1321, "RA_OF_ASC_NODE": 226.8951, "ARG_OF_PERICENTER": 304.1404, "MEAN_ANOMALY": 55.9211, "EPHEMERIS_TYPE": 0, "CLASSIFICATION_TYPE": "U", "NORAD_CAT_ID": 43058, "ELEMENT_SET_NO": 999, "REV_AT_EPOCH": 4967, "BSTAR": 0, "MEAN_MOTION_DOT": 3.9e-07, "MEAN_MOTION_DDOT": 0}, "tle": {"line1": "1 43058U 17079D   25337.24282752  .00000039  00000+0  00000+0 0  9996", "line2": "2 43058  55.1321 226.8951 0002917 304.1404  55.9211  1.70473824 49672"}}, "geometry": {"type": "Point", "coordinates": [-88.77036270921992, 45.1420118291196]}}, {"type": "Feature", "properties": {"norad_id": 43564, "name": "GSAT0221 (GALILEO 25)", "group": "galileo", "lat": 47.04631757193693, "lon": 123.18526098621632, "alt_km": 23235.13464201979, "timestamp": "2025-12-06T20:37:56.334811+00:00", "meta": {"OBJECT_NAME": "GSAT0221 (GALILEO 25)", "OBJECT_ID": "2018-060A", "EPOCH": "2025-12-04T07:38:46.646016", "MEAN_MOTION": 1.70475653, "ECCENTRICITY": 0.00066579, "INCLINATION": 57.2296, "RA_OF_ASC_NODE": 347.0453, "ARG_OF_PERICENTER": 280.7305, "MEAN_ANOMALY": 79.2265, "EPHEMERIS_TYPE": 0, "CLASSIFICATION_TYPE": "U", "NORAD_CAT_ID": 43564, "ELEMENT_SET_NO": 999, "REV_AT_EPOCH": 4584, "BSTAR": 0, "MEAN_MOTION_DOT": -7.1e-07, "MEAN_MOTION_DDOT": 0}, "tle": {"line1": "1 43564U 18060A   25338.31859544 -.00000071  00000+0  00000+0 0  9994", "line2": "2 43564  57.2296 347.0453 0006657 280.7305  79.2265  1.70475653 45840"}}, "geometry": {"type": "Point", "coordinates": [123.18526098621632, 47.04631757193693]}}, {"type": "Feature", "properties": {"norad_id": 43565, "name": "GSAT0222 (GALILEO 26)", "group": "galileo", "lat": -12.630530569829993, "lon": -21.320492081435, "alt_km": 23221.850438609814, "timestamp": "2025-12-06T20:37:56.334823+00:00", "meta": {"OBJECT_NAME": "GSAT0222 (GALILEO 26)", "OBJECT_ID": "2018-060B", "EPOCH": "2025-12-05T17:03:57.438144", "MEAN_MOTION": 1.70475397, "ECCENTRICITY": 0.00061787, "INCLINATION": 57.2328, "RA_OF_ASC_NODE": 347.0105, "ARG_OF_PERICENTER": 261.4004, "MEAN_ANOMALY": 98.5552, "EPHEMERIS_TYPE": 0, "CLASSIFICATION_TYPE": "U", "NORAD_CAT_ID": 43565, "ELEMENT_SET_NO": 999, "REV_AT_EPOCH": 4591, "BSTAR": 0, "MEAN_MOTION_DOT": -7.7e-07, "MEAN_MOTION_DDOT": 0}, "tle": {"line1": "1 43565U 18060B   25339.71108146 -.00000077  00000+0  00000+0 0  9991", "line2": "2 43565  57.2328 347.0105 0006178 261.4004  98.5552  1.70475397 45917"}}, "geometry": {"type": "Point", "coordinates": [-21.320492081435, -12.630530569829993]}}, {"type": "Feature", "properties": {"norad_id": 43566, "name": "GSAT0219 (GALILEO 23)", "group": "galileo", "lat": -24.143416988041515, "lon": -176.23523095646246, "alt_km": 23221.17169367154, "timestamp": "2025-12-06T20:37:56.334834+00:00", "meta": {"OBJECT_NAME": "GSAT0219 (GALILEO 23)", "OBJECT_ID": "2018-060C", "EPOCH": "2025-12-05T22:22:25.031424", "MEAN_MOTION": 1.70475627, "ECCENTRICITY": 0.00057672, "INCLINATION": 57.232, "RA_OF_ASC_NODE": 347.0061, "ARG_OF_PERICENTER": 285.4394, "MEAN_ANOMALY": 74.5216, "EPHEMERIS_TYPE": 0, "CLASSIFICATION_TYPE": "U", "NORAD_CAT_ID": 43566, "ELEMENT_SET_NO": 999, "REV_AT_EPOCH": 4589, "BSTAR": 0, "MEAN_MOTION_DOT": -7.8e-07, "MEAN_MOTION_DDOT": 0}, "tle": {"line1": "1 43566U 18060C   25339.93223416 -.00000078  00000+0  00000+0 0  9995", "line2": "2 43566  57.2320 347.0061 0005767 285.4394  74.5216  1.70475627 45896"}}, "geometry": {"type": "Point", "coordinates": [-176.23523095646246, -24.143416988041515]}}, {"type": "Feature", "properties": {"norad_id": 43567, "name": "GSAT0220 (GALILEO 24)", "group": "galileo", "lat": 53.746914939819, "lon": 48.445837682389566, "alt_km": 23231.95400978085, "timestamp": "2025-12-06T20:37:56.334846+00:00", "meta": {"OBJECT_NAME": "GSAT0220 (GALILEO 24)", "OBJECT_ID": "2018-060D", "EPOCH": "2025-12-04T23:31:11.369280", "MEAN_MOTION": 1.70475333, "ECCENTRICITY": 0.00061638, "INCLINATION": 57.2318, "RA_OF_ASC_NODE": 347.0321, "ARG_OF_PERICENTER": 281.7737, "MEAN_ANOMALY": 78.1861, "EPHEMERIS_TYPE": 0, "CLASSIFICATION_TYPE": "U", "NORAD_CAT_ID": 43567, "ELEMENT_SET_NO": 999, "REV_AT_EPOCH": 4586, "BSTAR": 0, "MEAN_MOTION_DOT": -7.4e-07, "MEAN_MOTION_DDOT": 0}, "tle": {"line1": "1 43567U 18060D   25338.97999270 -.00000074  00000+0  00000+0 0  9993", "line2": "2 43567  57.2318 347.0321 0006163 281.7737  78.1861  1.70475333 45861"}}, "geometry": {"type": "Point", "coordinates": [48.445837682389566, 53.746914939819]}}, {"type": "Feature", "properties": {"norad_id": 49809, "name": "GSAT0223 (GALILEO 27)", "group": "galileo", "lat": 13.163068758568974, "lon": 158.20327277786888, "alt_km": 23219.424217783413, "timestamp": "2025-12-06T20:37:56.334858+00:00", "meta": {"OBJECT_NAME": "GSAT0223 (GALILEO 27)", "OBJECT_ID": "2021-116A", "EPOCH": "2025-12-03T22:51:48.276576", "MEAN_MOTION": 1.70475481, "ECCENTRICITY": 0.00047656, "INCLINATION": 57.2213, "RA_OF_ASC_NODE": 346.9508, "ARG_OF_PERICENTER": 249.4566, "MEAN_ANOMALY": 290.7436, "EPHEMERIS_TYPE": 0, "CLASSIFICATION_TYPE": "U", "NORAD_CAT_ID": 49809, "ELEMENT_SET_NO": 999, "REV_AT_EPOCH": 2485, "BSTAR": 0, "MEAN_MOTION_DOT": -6.9e-07, "MEAN_MOTION_DDOT": 0}, "tle": {"line1": "1 49809U 21116A   25337.95264209 -.00000069  00000+0  00000+0 0  9992", "line2": "2 49809  57.2213 346.9508 0004765 249.4566 290.7436  1.70475481 24852"}}, "geometry": {"type": "Point", "coordinates": [158.20327277786888, 13.163068758568974]}}, {"type": "Feature", "properties": {"norad_id": 49810, "name": "GSAT0224 (GALILEO 28)", "group": "galileo", "lat": -56.55771501809017, "lon": -90.50334049635097, "alt_km": 23216.966640869265, "timestamp": "2025-12-06T20:37:56.334869+00:00", "meta": {"OBJECT_NAME": "GSAT0224 (GALILEO 28)", "OBJECT_ID": "2021-116B", "EPOCH": "2025-12-04T15:38:46.077216", "MEAN_MOTION": 1.70475512, "ECCENTRICITY": 0.00040562, "INCLINATION": 57.2223, "RA_OF_ASC_NODE": 346.9305, "ARG_OF_PERICENTER": 253.8254, "MEAN_ANOMALY": 108.1284, "EPHEMERIS_TYPE": 0, "CLASSIFICATION_TYPE": "U", "NORAD_CAT_ID": 49810, "ELEMENT_SET_NO": 999, "REV_AT_EPOCH": 2489, "BSTAR": 0, "MEAN_MOTION_DOT": -7.3e-07, "MEAN_MOTION_DDOT": 0}, "tle": {"line1": "1 49810U 21116B   25338.65192219 -.00000073  00000+0  00000+0 0  9998", "line2": "2 49810  57.2223 346.9305 0004056 253.8254 108.1284  1.70475512 24898"}}, "geometry": {"type": "Point", "coordinates": [-90.50334049635097, -56.55771501809017]}}, {"type": "Feature", "properties": {"norad_id": 59598, "name": "GSAT0225 (GALILEO 29)", "group": "galileo", "lat": -55.00284178773932, "lon": 15.47450311973836, "alt_km": 23228.78563083118, "timestamp": "2025-12-06T20:37:56.334881+00:00", "meta": {"OBJECT_NAME": "GSAT0225 (GALILEO 29)", "OBJECT_ID": "2024-079A", "EPOCH": "2025-12-04T01:47:23.955648", "MEAN_MOTION": 1.70474518, "ECCENTRICITY": 0.0002, "INCLINATION": 54.9978, "RA_OF_ASC_NODE": 106.5374, "ARG_OF_PERICENTER": 171.9845, "MEAN_ANOMALY": 188.0819, "EPHEMERIS_TYPE": 0, "CLASSIFICATION_TYPE": "U", "NORAD_CAT_ID": 59598, "ELEMENT_SET_NO": 999, "REV_AT_EPOCH": 999, "BSTAR": 0, "MEAN_MOTION_DOT": 1.5e-07, "MEAN_MOTION_DDOT": 0}, "tle": {"line1": "1 59598U 24079A   25338.07458282  .00000015  00000+0  00000+0 0  9999", "line2": "2 59598  54.9978 106.5374 0002000 171.9845 188.0819  1.70474518  9992"}}, "geometry": {"type": "Point", "coordinates": [15.47450311973836, -55.00284178773932]}}, {"type": "Feature", "properties": {"norad_id": 59600, "name": "GSAT0227 (GALILEO 30)", "group": "galileo", "lat": 18.722135612202383, "lon": -87.28378114922504, "alt_km": 23212.599606431642, "timestamp": "2025-12-06T20:37:56.334893+00:00", "meta": {"OBJECT_NAME": "GSAT0227 (GALILEO 30)", "OBJECT_ID": "2024-079C", "EPOCH": "2025-12-03T16:06:35.879040", "MEAN_MOTION": 1.70474617, "ECCENTRICITY": 0.00034037, "INCLINATION": 54.9912, "RA_OF_ASC_NODE": 106.5479, "ARG_OF_PERICENTER": 113.2328, "MEAN_ANOMALY": 246.7577, "EPHEMERIS_TYPE": 0, "CLASSIFICATION_TYPE": "U", "NORAD_CAT_ID": 59600, "ELEMENT_SET_NO": 999, "REV_AT_EPOCH": 1003, "BSTAR": 0, "MEAN_MOTION_DOT": 1.8e-07, "MEAN_MOTION_DDOT": 0}, "tle": {"line1": "1 59600U 24079C   25337.67124860  .00000018  00000+0  00000+0 0  9993", "line2": "2 59600  54.9912 106.5479 0003403 113.2328 246.7577  1.70474617 10033"}}, "geometry": {"type": "Point", "coordinates": [-87.28378114922504, 18.722135612202383]}}, {"type": "Feature", "properties": {"norad_id": 61182, "name": "GSAT0232 (GALILEO 32)", "group": "galileo", "lat": -7.14173298763181, "lon": -138.38441397444157, "alt_km": 23228.281638963545, "timestamp": "2025-12-06T20:37:56.334905+00:00", "meta": {"OBJECT_NAME": "GSAT0232 (GALILEO 32)", "OBJECT_ID": "2024-167A", "EPOCH": "2025-12-04T05:35:38.594112", "MEAN_MOTION": 1.70473104, "ECCENTRICITY": 0.00021975, "INCLINATION": 55.2442, "RA_OF_ASC_NODE": 226.6647, "ARG_OF_PERICENTER": 213.7297, "MEAN_ANOMALY": 325.6534, "EPHEMERIS_TYPE": 0, "CLASSIFICATION_TYPE": "U", "NORAD_CAT_ID": 61182, "ELEMENT_SET_NO": 999, "REV_AT_EPOCH": 755, "BSTAR": 0, "MEAN_MOTION_DOT": 4.1e-07, "MEAN_MOTION_DDOT": 0}, "tle": {"line1": "1 61182U 24167A   25338.23308558  .00000041  00000+0  00000+0 0  9996", "line2": "2 61182  55.2442 226.6647 0002197 213.7297 325.6534  1.70473104  7557"}}, "geometry": {"type": "Point", "coordinates": [-138.38441397444157, -7.14173298763181]}}]}